restaurant_name,compliant,business_address,street_number,street_name,city,postcode
Just Salad,1,233 Broadway,233,Broadway,New York,10279
Fowler and Wells,0,5 Beekman St,5,Beekman St,New York,10038
Birch Coffee,1,8 Spruce St,8,Spruce St,New York,10038
"Wxyz Bar,",1,49 Ann St,49,Ann St,New York,10038
Poke Bowl,1,104 Fulton St,104,Fulton St,New York,10038
Sakura Of Japan,0,73 Nassau St,73,Nassau St,New York,10038
Dunkin' Donuts,1,80 John St,80,John St,New York,10038
Hole In The Wall,1,15 Cliff St,15,Cliff St,New York,10038
Feed Your Soul Café,0,14 Wall St,14,Wall St,New York,10005
Black Fox Coffee Co,1,70 Pine St,70,Pine St,New York,10270
Fairfield Inn & Suites,1,161 Front St,161,Front St,New York,10038
Delivery Only,0,126 Pearl St,126,Pearl St,New York,10005
Bluestone Lane,1,90 Water St,90,Water St,New York,10005
Industry Kitchen,0,70 South St,70,South St,New York,10005
Just Salad,1,90 Broad St,90,Broad St,New York,10004
Hale and Hearty,1,111 Fulton St,111,Fulton St,New York,10038
Ainsworth,1,121 Fulton St,121,Fulton St,New York,10038
Keste Fulton,1,66 gold street,66,gold street,New York,10038
Temple Court,1,5 Beekman St,5,Beekman St,New York,10038
Joe's Pizza,1,124 Fulton St,124,Fulton St,New York,10038
Potbelly Sandwich Shop,1,127 Fulton St,127,Fulton St,New York,10038
GRK Fresh Greek,1,111 Fulton St,111,Fulton St,New York,10038
Plaza Deli,1,127 John St,127,John St,New York,10038
Flavors Café,1,175 Water St,175,Water St,New York,10038
Roast Kitchen,1,199 Water St,199,Water St,New York,10038
Mamam,1,239 Centre St,239,Centre St,New York,10013
Flour Shop,0,177 Lafayette St,177,Lafayette St,New York,10013
Troquet,1,155 Grand St,155,Grand St,New York,10013
"109 West Broadway Food & Wine LLC,",0,109 W Broadway,109,W Broadway,New York,10013
Gasoline Alley Coffee,1,154 Grand St,154,Grand St,New York,10013
The Ship,0,158 Lafayette St,158,Lafayette St,New York,10013
109 West Broadway Food & Wine LLC,0,109 W Broadway,109,W Broadway,New York,10013
Graffiti,0,130 Duane St,130,Duane St,New York,10013
Prologue Coffee Room,0,120 Lafayette St,120,Lafayette St,New York,10013
Aunt Jakes,1,151 Mulberry St,151,Mulberry St,New York,10013
Tetsu,0,78 Leonard St,78,Leonard St,New York,10013
Pure Green,0,95 Chambers St,95,Chambers St,New York,10007
Black Burger/ Roll N Go Pizza,0,362 Broadway,362,Broadway,New York,10013
Racines,0,94 Chambers St,94,Chambers St,New York,10007
Dunkin Donuts,1,321 Broadway,321,Broadway,New York,10007
Wichcraft,0,325 Broadway,325,Broadway,New York,10007
Gong Cha,1,Bayard St,Bayard,Bayard St,New York,10013
Famous Sichuan,0,10 Pell St,10,Pell St,New York,10013
Auntea,0,19 Mott St,19,Mott St,New York,10013
Juku,1,32 Mulberry St,32,Mulberry St,New York,10013
JR Sushi,0,86 W Broadway,86,W Broadway,New York,10007
Le Pain Quotidien,1,81 W Broadway,81,W Broadway,New York,10007
sweetgreen,1,413 Greenwich St,413,Greenwich St,New York,10013
Schnippers,1,120 Church St,120,Church St,New York,10007
Equinox Tribeca,0,54 Murray Street,54,Murray Street,New York,10007
sophiescuban,1,96 Chambers Street,96,Chambers Street,New York,10007
Kaede Sushi,0,90 Chambers St,90,Chambers St,New York,10007
Chipotle Mexican Grill,1,281 Broadway,281,Broadway,New York,10007
Think Coffee,1,350 Broadway,350,Broadway,New York,10013
ADVENTURE CAFE,1,85 Delancey St,85,Delancey St,New York,10002
MAX FISH,0,120 Orchard St,120,Orchard St,New York,10002
RUSS & DAUGHTERS CAFE,1,127 Orchard St,127,Orchard St,New York,10002
PUEBLA MEXICAN FOOD,0,120 Essex St,120,Essex St,New York,10002
CHAR SUE,1,119 Essex St,119,Essex St,New York,10002
"DUNKIN' DONUTS, BASKIN ROBBINS",1,140 Delancey St,140,Delancey St,New York,10002
RETRO GRILL & BAR (HOLIDAY INN),0,150 Delancey St,150,Delancey St,New York,10002
COCO,0,156 Delancey St,156,Delancey St,New York,10002
CLANCEY,0,79 Clinton St,79,Clinton St,New York,10002
BLACK CRESCENT,0,76 Clinton St,76,Clinton St,New York,10002
IVAN RAMEN,0,25 Clinton St,25,Clinton St,New York,10002
BOBA GUYS,0,23 Clinton St,23,Clinton St,New York,10002
REMEDY DINER,0,245 E Houston St,245,E Houston St,New York,10002
Benson's NYC,0,181 Essex St,181,Essex St,New York,10002
Sweet Chick,1,178 Ludlow St,178,Ludlow St,New York,10002
Ludlow Coffee Supply,1,176 Ludlow St,176,Ludlow St,New York,10002
Clinton St. Baking Company,1,4 Clinton St,4,Clinton St,New York,10002
Katz's Delicatessen,1,205 E Houston St,205,E Houston St,New York,10002
The MasalaWala,1,179 Essex St,179,Essex St,New York,10002
Taverna Di Bacco,1,175 Ludlow St,175,Ludlow St,New York,10002
Dirty French,1,180 Ludlow St,180,Ludlow St,New York,10002
Van Leeuwen Ice Cream,1,172 Ludlow St,172,Ludlow St,New York,10002
Charrúa,1,131 Essex St,131,Essex St,New York,10002
CAFÉ MEDI,1,107 Rivington St,107,Rivington St,New York,10002
Serafina,1,98 Rivington St,98,Rivington St,New York,10002
Dr Smood,1,181 E Houston Street ,181,E Houston Street,New York,10002
Hana Sushi,1,211 7th Ave,211,7th Ave,New York,10011
Grains and Greens,1,115 Essex St,115,Essex St,New York,10002
Essex Market.,1,88 Essex St,88,Essex St,New York,10002
DAIRY QUEEN GRILL & CHILL,1,54 W 14TH ST,54,W 14TH ST,New York,10011
POKEWORKS,1,23 E 15TH ST,23,E 15TH ST,New York,10003
Tsurutontan Udon Noodle Brasserie,1,21 E 16TH ST,21,E 16TH ST,New York,10003
LUKE'S LOBSTER,1,124 UNIVERSITY PL,124,UNIVERSITY PL,New York,10003
CAFE WATER,1,519 6TH AVE,519,6TH AVE,New York,10011
PASTA FLYER,1,510 6TH AVE,510,6TH AVE,New York,10011
MI-NE SUSHI TOTOYA,0,496 6TH AVE,496,6TH AVE,New York,10011
KUBEH,0,464 AVENUE OF THE AMERICAS,464,AVENUE OF THE AMERICAS,New York,10011
MIGHTY QUINN'S BBQ,1,75 GREENWICH AVE,75,GREENWICH AVE,New York,10014
TWO BOOTS TO GO WEST,1,20111TH ST,20111TH,20111TH ST,New York,10014
GREENWICH STEAK HOUSE FG,0,62 GREENWICH AVE,62,GREENWICH AVE,New York,10011
BLUESTONE LANE,1,55 GREENWICH AVE,55,GREENWICH AVE,New York,10014
BIBI BUBBLE TEA,1,65 W 8TH ST,65,W 8TH ST,New York,10011
BOUCHERIE,1,99 7TH AVE S,99,7TH AVE S,New York,10014
LMDM,1,37 BARROW ST,37,BARROW ST,New York,10014
THE DOUGHNUT PROJECT,1,10 MORTON ST,10,MORTON ST,New York,10014
SWEET TIME DESSERT,0,171 W 4TH ST,171,W 4TH ST,New York,10014
MEW MEN,1,7 CORNELIA ST,7,CORNELIA ST,New York,10014
POKEE,0,121 W 3RD ST,121,W 3RD ST,New York,10012
MINETTA LANE THEATRE,1,18 MINETTA LN,18,MINETTA LN,New York,10012
THELEWALA,0,112 MACDOUGAL ST,112,MACDOUGAL ST,New York,10012
NEW YORK KIMCHI,0,102 MACDOUGAL ST,102,MACDOUGAL ST,New York,10012
DANTE,0,79-81 MACDOUGAL ST,79-81,MACDOUGAL ST,New York,10012
SPRINGBONE KITCHEN,0,90 W 3RD ST,90,W 3RD ST,New York,10012
OKINII,0,216 THOMPSON ST,216,THOMPSON ST,New York,10012
SURYA INDIAN CUISINE,0,154 BLEECKER ST,154,BLEECKER ST,New York,10012
SUMMERS,0,169 THOMPSON ST,169,THOMPSON ST,New York,10012
BAR MOGA,0,128 W HOUSTON ST,128,W HOUSTON ST,New York,10012
NO. 142 BAR,1,142 SULLIVAN ST,142,SULLIVAN ST,New York,10012
BIRCH COFFEE,0,71 W HOUSTON ST,71,W HOUSTON ST,New York,10012
DO COOKIE DOUGH CONFECTIONS,0,550 LAGUARDIA PL,550,LAGUARDIA PL,New York,10012
DUNKIN' DONUTS,1,67 COOPER SQ,67,COOPER SQ,New York,10003
EAST VILLAGE THIA RESTAURANT,0,32 E 7TH ST,32,E 7TH ST,New York,10003
THE KATI ROLL COMPANY,0,128 2ND AVE,128,2ND AVE,New York,10003
575 PUB ON SECOND,0,93 2ND AVE,93,2ND AVE,New York,10003
CIALA,1,77 2ND AVE,77,2ND AVE,New York,10003
KONA COFFEE AND COMPANY,1,57 2ND AVE,57,2ND AVE,New York,10003
JUICEGO,0,333 E 9TH ST,333,E 9TH ST,New York,10003
TAQUERIA ST MARKS PL,0,79 SAINT MARKS PL,79,SAINT MARKS PL,New York,10003
NOREETUH,1,128 1ST AVE,128,1ST AVE,New York,10009
FUKU,0,163 1ST AVE,163,1ST AVE,New York,10003
BLACK SEED BAGELS,0,176 1ST AVE,176,1ST AVE,New York,10009
LITTLE TONG NOODLE SHOP,1,177 1ST AVE,177,1ST AVE,New York,10003
THREE SEAT ESPRESSO,0,137 AVENUE A,137,AVENUE A,New York,10009
BUTTER LANE,0,123 E 7TH ST,123,E 7TH ST,New York,10009
HO FOODS NYC,0,110 E 7TH ST,110,E 7TH ST,New York,10009
BANH MI ZON,0,443 E 6TH ST,443,E 6TH ST,New York,10009
RESOBOX,0,91 E 3RD ST,91,E 3RD ST,New York,10003
DIVYA'S KITCHEN,1,25 1ST AVE,25,1ST AVE,New York,10003
MOMOFUKU KO,0,8 EXTRA PL,8,EXTRA PL,New York,10003
TOMS,0,264 ELIZABETH ST,264,ELIZABETH ST,New York,10012
LE TURTLE,0,177 CHRYSTIE ST,177,CHRYSTIE ST,New York,10002
Tacombi,1,255 Bleecker St,255,Bleecker St,New York,10014
Juice Generation,0,245 Bleecker St,245,Bleecker St,New York,10014
Pasticceria Rocco,0,243 Bleecker St,243,Bleecker St,New York,10014
Starbucks,0,239 Bleecker St,239,Bleecker St,New York,10014
Wolfnights,1,235 Bleecker St,235,Bleecker St,New York,10014
Grom,1,233 Bleecker St,233,Bleecker St,New York,10014
sweetgreen,1,226 Bleecker St,226,Bleecker St,New York,10014
Le Pain Quotidien,1,65 Bleecker St,65,Bleecker St,New York,10012
Sweets by CHLOE.,1,185 Bleecker St Suite B,185,Bleecker St Suite B,New York,10012
Creperie,1,112 Macdougal St,112,Macdougal St,New York,10012
Irving Farm New York,1,78 W 3rd St,78,W 3rd St,New York,10012
Arturo's,1,106 W Houston St,106,W Houston St,New York,10012
Morgenstern's Finest Ice Cream,1,2 Rivington St,2,Rivington St,New York,10002
Rosie's,1,29 E 2nd St,29,E 2nd St,New York,10003
Tatsu Ramen,1,167 1st Avenue,167,1st Avenue,New York,10003
Stromboli Pizza,1,83 St Marks Pl,83,St Marks Pl,New York,10003
Tarallucci e Vino,1,163 1st Avenue,163,1st Avenue,New York,10003
Dim Sum Palace,1,59 2nd Ave,59,2nd Ave,New York,10003
Brick Lane Curry House,1,79 2nd Ave,79,2nd Ave,New York,10003
Cava,1,143 4th Ave,143,4th Ave,New York,10003
Dos Toros Taqueria,1,137 4th Ave,137,4th Ave,New York,10003
Le Cafe Coffee,1,7 E 14th St,7,E 14th St,New York,10003
Lizzmonade,1,1 Brooklyn Bridge Park,1,Brooklyn Bridge Park,Brooklyn,11201
Luke's Lobster,1,11 Water St,11,Water St,Brooklyn,11201
Sugarcane Raw Bar Grill,1,55 Water St,55,Water St,Brooklyn,11201
Brooklyn Roasting Company,1,2 Main St,2,Main St,Brooklyn,11201
Brooklyn Roasting Company,1,45 Washington St,45,Washington St,Brooklyn,11201
Juice Press,0,117 Front St,117,Front St,Brooklyn,11201
Untamed Sandwiches,0,117 Adams St,117,Adams St,Brooklyn,11201
Bluestone Lane,1,55 Prospect St,55,Prospect St,Brooklyn,11201
Randolph Beer,0,77 Sands St,77,Sands St,Brooklyn,11201
Celestine Restaurant,0,1 John St,1,John St,Brooklyn,11201
Friend Of A Farmer,0,76 Montague St,76,Montague St,Brooklyn,11201
Emack & Bolios,0,115 Montague St,115,Montague St,Brooklyn,11201
Le Pain Quotidien,1,121 Montague St,121,Montague St,Brooklyn,11201
Pilot,1,334 Furman St,334,Furman St,Brooklyn,11201
Sterling Affair,0,250 Joralemon St,250,Joralemon St,Brooklyn,11201
New Chu's Gourmet,0,82 Livingston St,82,Livingston St,Brooklyn,11201
Paris Baguette,1,97 Court St,97,Court St,Brooklyn,11201
Red Mango,1,123 Court St,123,Court St,Brooklyn ,11201
Pair Wine And Cheese,0,140 Atlantic Ave,140,Atlantic Ave,Brooklyn,11201
Elsa,1,136 Atlantic Ave,136,Atlantic Ave,Brooklyn,11201
Pure Green,0,95 Boerum Place,95,Boerum Place,Brooklyn,11201
Hilton Brooklyn New York,0,140 Schermerhorn St,140,Schermerhorn St,Brooklyn,11201
Mia's Bakery,1,139 Smith St,139,Smith St,Brooklyn,11201
Cibao,0,172 Smith St,172,Smith St,Brooklyn,11201
Fawkner,1,191 Smith St,191,Smith St,Brooklyn,11201
Grand Army Bar,0,336 State St,336,State St,Brooklyn,11217
Commons Cafe,1,388 Atlantic Ave,388,Atlantic Ave,Brooklyn,11217
Pierogi Boys,1,445 Gold St,445,Gold St,Brooklyn,11201
Brooklyn Roasting Company,0,1 Dekalb Ave,1,Dekalb Ave,Brooklyn,11201
City Farm Cafe,1,647 Fulton St,647,Fulton St,Brooklyn,11217
Baba Cool,1,64 Lafayette Ave,64,Lafayette Ave,Brooklyn,11217
Annex,1,753 Fulton St,753,Fulton St,Brooklyn,11217
Kings Beer Hall - The Kbh,1,84 Saint Marks Pl,84,Saint Marks Pl,Brooklyn,11217
Insa,1,328 Douglass St,328,Douglass St,Brooklyn,11217
"Kick Axe Throwing, LLC",1,622 Degraw St,622,Degraw St,Brooklyn,11217
Lucky 13 Saloon,1,644 Sackett St,644,Sackett St,Brooklyn,11217
Taheni Mediterranean Grill,1,224 4th Ave,224,4th Ave,Brooklyn,11215
Brownstone Bagels,1,671 Union St,671,Union St,Brooklyn,11215
Colony 274,1,274 4th Ave,274,4th Ave,Brooklyn,11215
Givers And Takers,1,286 3rd Ave,286,3rd Ave,Brooklyn,11215
Dirty Precious,1,317 3rd Ave,317,3rd Ave,Brooklyn,11215
Gristmill,0,289 5th Ave,289,5th Ave,Brooklyn,11215
Cooks And Captains,0,254 5th Ave,254,5th Ave,Brooklyn,11215
Shaking-Crab,1,230 5th Ave,230,5th Ave,Brooklyn,11215
Bricolage,1,162 5th Ave,162,5th Ave,Brooklyn,11217
Subway,1,423 5th Ave,423,5th Ave,Brooklyn,11215
Far East Restaurant,0,471A 5th Ave,471A,5th Ave,Brooklyn,11215
Subway,1,525 5th Ave,525,5th Ave,Brooklyn,11215
Roots,0,639 5th Ave,639,5th Ave,Brooklyn,11215
Camperdown Elm,1,441 7th Ave,441,7th Ave,Brooklyn,11215
Bociccia,1,426 7th Ave,426,7th Ave,Brooklyn,11215
Uncle Louie GAS Italian Ices & Ice Cream,1,319 7th Ave,319,7th Ave,Brooklyn,11215
Just Salad,1,252 7th Ave,252,7th Ave,Brooklyn,11215
Chocolateria,1,228 7th Ave,228,7th Ave,Brooklyn,11215
Front Street Pizza,1,80 Front St,80,Front St,Brooklyn,11201
Sweetgreen,1,50 Washington St,50,Washington St,Brooklyn,11201
Sweetgreen,1,127 Court St,127,Court St,Brooklyn,11201
Bareburger,1,149 Court St,149,Court St,Brooklyn,11201
Negril,1,256 5th Ave,256,5th Ave,Brooklyn,11215
Chu Tea,1,471 5th Ave,471,5th Ave,Brooklyn,11215
SAW SHACK,0,8422 37TH AVE,8422,37TH AVE,Queens,
LA ABUNDANCIA RESTAURANT & BAKERY,1,8116 ROOSEVELT AVE,8116,ROOSEVELT AVE,Queens,
PANDA CAFE,1,8331 BROADWAY,8331,BROADWAY,Queens,
EIM KHAO MUN KAI,1,8132 BROADWAY,8132,BROADWAY,Queens,
QUEENS SWEET YUMMY HOUSE,0,8313 BROADWAY,8313,BROADWAY,Queens,
EAST 21 FOREVER,1,7126 ROOSEVELT AVE,7126,ROOSEVELT AVE,Queens,
AUTENTICO TACOS AL SUADERO,1,8721 ROOSEVELT AVE,8721,ROOSEVELT AVE,Queens,
RIKO,1,7814 ROOSEVELT AVE,7814,ROOSEVELT AVE,Queens,
POLLERIA AZOGUENITA,1,9123 37TH AVE,9123,37TH AVE,Queens,
HAPPY KITCHEN,1,8012 37TH AVE,8012,37TH AVE,Queens,
TIBETAN JAPANESE RESTAURANT,1,7526 37TH AVE,7526,37TH AVE,Queens,
AREPA LADY,1,7717 37TH AVE,7717,37TH AVE,Queens,
KFC,1,8715 NORTHERN BLVD,8715,NORTHERN BLVD,Queens,
KFC,1,9015 QUEENS BLVD,9015,QUEENS BLVD,Queens,
KFC,1,5717 QUEENS BLVD,5717,QUEENS BLVD,Queens,
KFC,1,17546 HILLSIDE AVE,17546,HILLSIDE AVE,Queens,
KFC,1,15203 NORTHERN BLVD,15203,NORTHERN BLVD,Queens,
KFC,1,15805 UNION TPKE,15805,UNION TPKE,Queens,
DUNKIN' DONUTS,1,9502 37TH AVE,9502,37TH AVE,Queens,
HIBINO LIC,1,1070 JACKSON AVE,1070,JACKSON AVE,Queens,
K-TOWN FOOD COURT,1,46-40 FRANCIS LEWIS BOULEVARD,46-40,FRANCIS LEWIS BOULEVARD,Queens,
ASIAN GOURMET,1,5711 MAIN ST,5711,MAIN ST,Queens,
EIM KHAO MUN KAI,1,8132 BROADWAY,8132,BROADWAY,Queens,
DYLAN'S CANDY BAR,1,JFK JFK AIRPORT,JFK,JFK AIRPORT,Queens,
DUNKIN' DONUTS,1,8611 LEFFERTS BLVD,8611,LEFFERTS BLVD,Queens,
THE GLOBE TAVERN,1,4910 SKILLMAN AVE,4910,SKILLMAN AVE,Queens,
TWIST AND SMASH'D SPORTS,1,3402 STEINWAY ST,3402,STEINWAY ST,Queens,
DUNKIN' DONUTS,1,5914 BEACH CHANNEL DR,5914,BEACH CHANNEL DR,Queens,
The Blvd Restaurant and Lounge,1,1911 FRANCIS LEWIS BLVD,1911,FRANCIS LEWIS BLVD,Queens,
OVOSODO,1,11060 QUEENS BLVD,11060,QUEENS BLVD,Queens,
NUNOODLE,1,8910 QUEENS BLVD,8910,QUEENS BLVD,Queens,
TITO RADS GRILL,1,4910 QUEENS BLVD,4910,QUEENS BLVD,Queens,
QDOBA MEXICAN GRILL,1,NKA JFK INTERNATIONAL AIRPORT,NKA,JFK INTERNATIONAL AIRPORT,Queens,
HASHI RAMEN & IZAKAYA,1,19212 NORTHERN BLVD,19212,NORTHERN BLVD,Queens,
MCDONALD'S,1,2248 31ST ST,2248,31ST ST,Queens,
SUBWAY,1,25919 UNION TPKE,25919,UNION TPKE,Queens,
DUNKIN' DONUTS,1,5109 BROADWAY,5109,BROADWAY,Queens,
DUNKIN' DONUTS,1,12117 LIBERTY AVE,12117,LIBERTY AVE,Queens,
NEW YORK SHAKE & BURGER,1,14701 LIBERTY AVE,14701,LIBERTY AVE,Queens,
"DUNKIN' DONUTS, BASKIN ROBBINS",1,14401 LIBERTY AVE,14401,LIBERTY AVE,Queens,
HOWARD JOHNSON LIC,1,3861 12TH ST,3861,12TH ST,Queens,
SUBWAY,1,13011 N CONDUIT AVE,13011,N CONDUIT AVE,Queens,
Hampton Inn JFK,1,14410 135TH AVE,14410,135TH AVE,Queens,
SUBWAY,1,13721 LIBERTY AVE,13721,LIBERTY AVE,Queens,
GYRO WORLD,1,6657 FRESH POND RD,6657,FRESH POND RD,Queens,
DUNKIN' DONUTS,1,16910 HILLSIDE AVE,16910,HILLSIDE AVE,Queens,
BURGER KING,1,4015 QUEENS BLVD,4015,QUEENS BLVD,Queens,
DUNKIN' DONUTS,1,9403 CORONA AVE,9403,CORONA AVE,Queens,
DUNKIN' DONUTS,1,13344 150TH ST,13344,150TH ST,Queens,
SUBWAY,1,2527B PARSONS BLVD,2527B,PARSONS BLVD,Queens,
SHANGHAI DUMPLING,1,24911 NORTHERN BLVD,24911,NORTHERN BLVD,Queens,
DUNKIN' DONUTS,1,3105 QUEENS BLVD,3105,QUEENS BLVD,Queens,
TOSKANA PIZZERIA RESTAURANT,1,24825 NORTHERN BLVD,24825,NORTHERN BLVD,Queens,
PAPA JOHN'S,1,10303 101ST AVE,10303,101ST AVE,Queens,
DUNKIN' DONUTS,1,16601 NORTHERN BLVD,16601,NORTHERN BLVD,Queens,
SUBWAY,1,8020 JAMAICA AVE,8020,JAMAICA AVE,Queens,
IHOP,1,15517 NORTHERN BLVD,15517,NORTHERN BLVD,Queens,
MOO SHU,1,25313 NORTHERN BLVD,25313,NORTHERN BLVD,Queens,
BROWNY,1,19519 NORTHERN BLVD,19519,NORTHERN BLVD,Queens,
BUFFALO WILD WINGS GRILL & BAR,1,13415 20TH AVE,13415,20TH AVE,Queens,
POTATO CORNER,1,9015 QUEENS BLVD,9015,QUEENS BLVD,Queens,
DUNKIN DONUTS,1,8710 NORTHERN BLVD,8710,NORTHERN BLVD,Queens,
POPEYES,1,13344 WHITESTONE EXPY,13344,WHITESTONE EXPY,Queens,
WENDY'S,1,22006 NORTHERN BLVD,22006,NORTHERN BLVD,Queens,
WENDY'S,1,6902 NORTHERN BLVD,6902,NORTHERN BLVD,Queens,
WENDY'S,1,15533 JAMAICA AVE,15533,JAMAICA AVE,Queens,
WENDY'S,1,9013 METROPOLITAN AVE,9013,METROPOLITAN AVE,Queens,
WENDY'S,1,13350 WHITESTONE EXPY,13350,WHITESTONE EXPY,Queens,
WENDY'S,1,6111 FRESH POND RD,6111,FRESH POND RD,Queens,
WENDY'S,1,150TH AVENUE,150TH,AVENUE,Queens,
DUNKIN DONUTS,1,8707 ROCKAWAY BEACH BLVD,8707,ROCKAWAY BEACH BLVD,Queens,
DUNKIN DONUTS,1,3776 JUNCTION BLVD,3776,JUNCTION BLVD,Queens,
WENDY'S,1,7232 BROADWAY,7232,BROADWAY,Queens,
KOKI O,1,22140 HORACE HARDING EXPY,22140,HORACE HARDING EXPY,Queens,
DUNKIN DONUTS,1,8610 QUEENS BLVD,8610,QUEENS BLVD,Queens,
CARVEL ICE CREAM,1,16310 CROSSBAY BLVD,16310,CROSSBAY BLVD,Queens,
RED MANGO #0484,1,6115 SPRINGFIELD BLVD,6115,SPRINGFIELD BLVD,Queens,
SARITAS BAKERY,1,9412 CORONA AVE,9412,CORONA AVE,Queens,
THE CROWN ROOM,1,3917 BELL BLVD,3917,BELL BLVD,Queens,
MEETING CLUB,1,13659 37TH AVE,13659,37TH AVE,Queens,
Sushi Burrito,1,4235 MAIN ST,4235,MAIN ST,Queens,
THAI POT,1,10307 QUEENS BLVD,10307,QUEENS BLVD,Queens,
ICON,1,3184 33RD ST,3184,33RD ST,Queens,
CAFE 48,1,21209 48TH AVE,21209,48TH AVE,Queens,
IRIS TEA & BAKERY,1,18204 HORACE HARDING EXPY,18204,HORACE HARDING EXPY,Queens,
PRIVATE KITCHEN,1,3635 MAIN ST,3635,MAIN ST,Queens,
BROOKSIDE MARKET,1,4315 QUEENS BLVD,4315,QUEENS BLVD,Queens,
Ravel Garden Grill,1,818 QUEENS PLZ S,818,QUEENS PLZ S,Queens,
FIRST STOP BAR & GRILL,1,2708 QUEENS PLZ S,2708,QUEENS PLZ S,Queens,
LAI WANG KA MEI RESTAURANT,1,4624 KISSENA BLVD,4624,KISSENA BLVD,Queens,
CHINA HOUSE,1,20618 HILLSIDE AVE,20618,HILLSIDE AVE,Queens,
CAFE 1 OF A KIND,1,25513 NORTHERN BLVD,25513,NORTHERN BLVD,Queens,
UNCLE JACK'S MEAT HOUSE,1,3618 DITMARS BLVD,3618,DITMARS BLVD,Queens,
KEILLY CHINESE FOOD,1,2140 UTOPIA PKWY,2140,UTOPIA PKWY,Queens,
SOUVLAKI SQUARE,1,20507 35TH AVE,20507,35TH AVE,Queens,
NATHANIEL'S BAKERY,1,2004 UTOPIA PKWY,2004,UTOPIA PKWY,Queens,
TACO BELL,1,3801 JUNCTION BLVD,3801,JUNCTION BLVD,Queens,
GYRO CORNER NYC,1,3269 FRANCIS LEWIS BLVD,3269,FRANCIS LEWIS BLVD,Queens,
ROMA BAGELS AND PASTRY CAFE,1,3331 FRANCIS LEWIS BLVD,3331,FRANCIS LEWIS BLVD,Queens,
TASTE OF CHINA,1,6824 FRESH MEADOW LN,6824,FRESH MEADOW LN,Queens,
FOREST HILLS DINER,1,6860 AUSTIN ST,6860,AUSTIN ST,Queens,
SUBWAY STORE #30214,1,9558 QUEENS BLVD,9558,QUEENS BLVD,Queens,
RED MANGO,1,6147 188TH ST,6147,188TH ST,Queens,
MCDONALD'S,1,5404 MYRTLE AVE,5404,MYRTLE AVE,Queens,
Little Frankies Pizzeria,1,20501B LINDEN BLVD,20501B,LINDEN BLVD,Queens,
BOSTON MARKET,1,16502 JAMAICA AVE,16502,JAMAICA AVE,Queens,
Carvel,1,14703 45TH AVE,14703,45TH AVE,Queens,
SUBWAY,1,18118 HILLSIDE AVE,18118,HILLSIDE AVE,Queens,
BURGER KING,1,12002 LIBERTY AVE,12002,LIBERTY AVE,Queens,
PARIS BAGUETTE,1,8816 NORTHERN BLVD,8816,NORTHERN BLVD,Queens,
UNO PIZZERIA & GRILL,1,3902 BELL BLVD,3902,BELL BLVD,Queens,
BUCCANEER DINER,1,9301 ASTORIA BLVD,9301,ASTORIA BLVD,Queens,
MCDONALD'S,1,3146 21ST ST,3146,21ST ST,Queens,
RIVER DOCK BAR & GRILL,0,1 RICHMOND TER,1,RICHMOND TER,Staten Island,
SUBWAY & CARVEL,1,9 FERRY TERMINAL DR,9,FERRY TERMINAL DR,Staten Island,
DUNKIN DONUTS,1,700 RICHMOND TER,700,RICHMOND TER,Staten Island,
LIBERTY TAVERN,1,382 FOREST AVE,382,FOREST AVE,Staten Island,
MD BAGELS,1,434 CASTLETON AVE,434,CASTLETON AVE,Staten Island,
LAROSA,1,1172 VICTORY BLVD,1172,VICTORY BLVD,Staten Island,
MANDI HOUSE,1,58 RICHMOND TER,58,RICHMOND TER,Staten Island,
GINO'S PIZZA,1,1351 FOREST AVE,1351,FOREST AVE,Staten Island,
KOTEN'S CARRIBEAN & AMERICAN,1,537 PORT RICHMOND AVE,537,PORT RICHMOND AVE,Staten Island,
TROPICAL SMOOTHIE CAFE,1,1407 FOREST AVE,1407,FOREST AVE,Staten Island,
Dairy Queen Grill & Chill,1,2005 FOREST AVE,2005,FOREST AVE,Staten Island,
YUMMY MACHI,1,2236 FOREST AVE,2236,FOREST AVE,Staten Island,
DEFONTE'S OF BROOKLYN,1,95 WATER ST,95,WATER ST,Staten Island,
KENNEDY FRIED CHICKEN,0,229 BROAD ST,229,BROAD ST,Staten Island,
PAULIE'S PIZZERIA,1,500 BAY ST,500,BAY ST,Staten Island,
RICHMOND FAMILY PIZZA,1,1060 RICHMOND RD,1060,RICHMOND RD,Staten Island,
SHARKEY'S SQUARE,1,1910 HYLAN BLVD,1910,HYLAN BLVD,Staten Island,
BIN 5,1,1233 BAY ST,1233,BAY ST,Staten Island,
VIA MARGHERITA RESTAURANT,0,452 TOMPKINS AVE,452,TOMPKINS AVE,Staten Island,
AVOCADO SUSHI II,1,1919 HYLAN BLVD,1919,HYLAN BLVD,Staten Island,
SUBWAY,1,86 GUYON AVE,86,GUYON AVE,Staten Island,
FUSHIMI JAPANESE CUISINE,1,2110 RICHMOND RD,2110,RICHMOND RD,Staten Island,
EL DORADO RESTAURANT,0,2236 HYLAN BLVD,2236,HYLAN BLVD,Staten Island,
RONNIE'S SANDWICH SHOPPE,1,2300 HYLAN BLVD,2300,HYLAN BLVD,Staten Island,
NEW GARDEN,1,1755 RICHMOND RD,1755,RICHMOND RD,Staten Island,
SUBWAY,1,6390 AMBOY RD,6390,AMBOY RD,Staten Island,
DUNKIN' DONUTS,1,585 VETERANS RD W,585,VETERANS RD W,Staten Island,
JOE'S LOBSTER HOUSE,0,4707 ARTHUR KILL RD,4707,ARTHUR KILL RD,Staten Island,
LA ROSA GRILL,1,245 RICHMOND VALLEY RD,245,RICHMOND VALLEY RD,Staten Island,
DUNKIN DONUTS,1,2449 VETERANS RD W,2449,VETERANS RD W,Staten Island,
FUSHIMI,0,17 PAGE AVE,17,PAGE AVE,Staten Island,
MISAKI SUSHI,1,645 ROSSVILLE AVE,645,ROSSVILLE AVE,Staten Island,
AUNT BUTCHIES OF BROOKLYN,1,4864 ARTHUR KILL RD,4864,ARTHUR KILL RD,Staten Island,
DON CHUCHO,1,1112 FOREST AVE,1112,FOREST AVE,Staten Island,
CRIMMINS ALE HOUSE,0,1144 FOREST AVE,1144,FOREST AVE,Staten Island,
Philly Pretzel Factory,1,604 FOREST AVE,604,FOREST AVE,Staten Island,
MANGIA FRESH KITCHEN,1,20 JEFFERSON BLVD,20,JEFFERSON BLVD,Staten Island,
SMASHBURGER,1,4318 AMBOY RD,4318,AMBOY RD,Staten Island,
DUNKIN DONUTS,1,3845 RICHMOND AVE,3845,RICHMOND AVE,Staten Island,
BETTER GOURMET HEALTH KITCHEN,0,877 HUGUENOT AVE,877,HUGUENOT AVE,Staten Island,
AVOCADO,1,4342 AMBOY RD,4342,AMBOY RD,Staten Island,
RICHMOND REPUBLIC,1,4459 AMBOY RD,4459,AMBOY RD,Staten Island,
RED MANGO,1,2655 RICHMOND AVE,2655,RICHMOND AVE,Staten Island,
RED ROBIN GOURMET BURGERS AND,1,2655 RICHMOND AVE,2655,RICHMOND AVE,Staten Island,
DUNKIN DONUTS,1,2655 RICHMOND AVENUE,2655,RICHMOND AVENUE,Staten Island,
JOE & PAT'S,1,1758 VICTORY BLVD,1758,VICTORY BLVD,Staten Island,
290 WILD BAR,0,290 WILD AVE,290,WILD AVE,Staten Island,
SANMA JAPANESE RESTAURANT,1,10 AKRON ST,10,AKRON ST,Staten Island,
SUSHI CORNER,0,949 JEWETT AVE,949,JEWETT AVE,Staten Island,
Better Gourmet,1,4077 VICTORY BLVD,4077,VICTORY BLVD,Staten Island,
SHAKE SHACK,1,2655 RICHMOND AVE,2655,RICHMOND AVE,Staten Island,
DAVE & BUSTERS,1,2655 RICHMOND AVE,2655,RICHMOND AVE,Staten Island,
MARIANNA'S PIZZA,0,11 HOLDEN BLVD,11,HOLDEN BLVD,Staten Island,
AMC STATEN ISLAND 11,1,2655 RICHMOND AVE,2655,RICHMOND AVE,Staten Island,
CHUCK E. CHEESE'S,1,700 EXTERIOR ST,700,EXTERIOR ST,Bronx,
COLD CUT CITY BUNNY DELI 2,1,228 W 231ST ST,228,W 231ST ST,Bronx,
CHINA MIA,1,2232 WHITE PLAINS RD,2232,WHITE PLAINS RD,Bronx,
CARIDAD RESTAURANT,1,1594 WESTCHESTER AVE,1594,WESTCHESTER AVE,Bronx,
NRGIZE LIFE STYLE CAFE,1,1776 EASTCHESTER RD,1776,EASTCHESTER RD,Bronx,
DUNKIN' DONUTS,1,1592 WESTCHESTER AVE,1592,WESTCHESTER AVE,Bronx,
SARKU JAPAN,1,200 BAYCHESTER AVE,200,BAYCHESTER AVE,Bronx,
RED LOBSTER,1,2090 BARTOW AVE,2090,BARTOW AVE,Bronx,
DUNKIN' DONUTS,1,1776 EASTCHESTER RD,1776,EASTCHESTER RD,Bronx,
OLIVE GARDEN,1,200 BAYCHESTER AVE,200,BAYCHESTER AVE,Bronx,
POLLO SABROSO RESTAURANT,1,216 E 198TH ST,216,E 198TH ST,Bronx,
CENTRAL CARIBBEAN BAKERY,1,1322 E GUN HILL RD,1322,E GUN HILL RD,Bronx,
RED ROBIN GOURMET BURGERS AND,1,200 BAYCHESTER AVE,200,BAYCHESTER AVE,Bronx,
Bangla Garden Restaurant,1,1864 WESTCHESTER AVE,1864,WESTCHESTER AVE,Bronx,
TEXAS CHICKEN & BURGERS,1,2660 3RD AVE,2660,3RD AVE,Bronx,
SARKU JAPAN,1,815 HUTCHINSON RIVER PKWY,815,HUTCHINSON RIVER PKWY,Bronx,
MB RESTAURANT,1,2771 WEBSTER AVE,2771,WEBSTER AVE,Bronx,
M AND G RESTAURANT,0,2472 ARTHUR AVE,2472,ARTHUR AVE,Bronx,
KENNEDY FRIED CHICKEN,1,638 E 169TH ST,638,E 169TH ST,Bronx,
LA FUENTES STEAKHOUSE,1,1306 JEROME AVE,1306,JEROME AVE,Bronx,
BUFFALO WILD WINGS,1,193 W 237TH ST,193,W 237TH ST,Bronx,
SCAVELLO'S ON THE ISLAND,1,101 CITY ISLAND AVE,101,CITY ISLAND AVE,Bronx,
TRUMP GOLF LINKS AT FERRY POINT,0,500 HUTCHINSON RIVER PKWY,500,HUTCHINSON RIVER PKWY,Bronx,
EL TORITO MEXICAN RESTAURANT,0,2132 CRUGER AVE,2132,CRUGER AVE,Bronx,
ELLIE'S DINER & RESTAURANT,1,58 METROPOLITAN OVAL,58,METROPOLITAN OVAL,Bronx,
SUBWAY,1,839 PROSPECT AVE,839,PROSPECT AVE,Bronx,
BUHRE TOP TORTILLAS,1,3038 BUHRE AVE,3038,BUHRE AVE,Bronx,
RESIDENCE INN BY MARRIOTT BRONX,1,1776 EASTCHESTER RD,1776,EASTCHESTER RD,Bronx,
RELISH CATERERS,0,2501 3RD AVE,2501,3RD AVE,Bronx,
HERBALIFE,0,624 MELROSE AVE,624,MELROSE AVE,Bronx,
KAI FAN ASIAN CUISINE,1,3717 RIVERDALE AVE,3717,RIVERDALE AVE,Bronx,
SAZON DE LUPITA,1,155A W KINGSBRIDGE RD,155A,W KINGSBRIDGE RD,Bronx,
ARCHIE'S TAP AND TABLE,1,536 CITY ISLAND AVE,536,CITY ISLAND AVE,Bronx,
WILLIAMS CAFE,1,122 WESTCHESTER SQ,122,WESTCHESTER SQ,Bronx,
TEXAS CHICKEN & BURGERS,1,2104 CROTONA PKWY,2104,CROTONA PKWY,Bronx,
MCDONALD'S,1,16 WESTCHESTER SQ,16,WESTCHESTER SQ,Bronx,
ARTH ALGANATIN,0,700 RHINELANDER AVE,700,RHINELANDER AVE,Bronx,
PANDA EXPRESS,1,1 W FORDHAM RD,1,W FORDHAM RD,Bronx,
OUTBACK STEAKHOUSE,1,270 BAYCHESTER AVE,270,BAYCHESTER AVE,Bronx,
CASA RESTAURANT & LOUNGE,1,3607 E TREMONT AVE,3607,E TREMONT AVE,Bronx,
MARIO'S PIZZA 2,1,1011 WESTCHESTER AVE,1011,WESTCHESTER AVE,Bronx,
BURGER KING,1,1607 WESTCHESTER AVE,1607,WESTCHESTER AVE,Bronx,
ACRI CAFE,1,1315 COMMERCE AVE,1315,COMMERCE AVE,Bronx,
NEW YORK POST CAFETERIA,0,900 E 132ND ST,900,E 132ND ST,Bronx,
NEW EAST STAR,1,987 WESTCHESTER AVE,987,WESTCHESTER AVE,Bronx,
BURGER LODGE,1,657 E 189TH ST,657,E 189TH ST,Bronx,
BURGER KING,1,961 E 174TH ST,961,E 174TH ST,Bronx,
PIQUE 86 RESTAURANT,1,220 E 198TH ST,220,E 198TH ST,Bronx,
EL VALLE RESTAURANTE,1,3452 BOSTON RD,3452,BOSTON RD,Bronx,
CAPRI CAKES,1,306 E 149TH ST,306,E 149TH ST,Bronx,
SUBWAY,1,905 WHITE PLAINS RD,905,WHITE PLAINS RD,Bronx,
SALSA ZONE,1,370 E 146TH ST,370,E 146TH ST,Bronx,
DOMINICANA POLLO SABROSO,1,105 E MOUNT EDEN AVE,105,E MOUNT EDEN AVE,Bronx,
LATIN FUSION,1,789 ALLERTON AVE,789,ALLERTON AVE,Bronx,
CARVEL,1,2231A GRAND CONCOURSE,2231A,GRAND CONCOURSE,Bronx,
WINGSTOP,1,88 E BURNSIDE AVE,88,E BURNSIDE AVE,Bronx,
CHINA KING OGDEN RESTAURANT,1,1377 OGDEN AVE,1377,OGDEN AVE,Bronx,
BETTER GOURMET HEALTH KITCHEN,1,1135C MORRIS PARK AVE,1135C,MORRIS PARK AVE,Bronx,
BIARRITZ BAKERY,1,1015 E 167TH ST,1015,E 167TH ST,Bronx,
OASIS MIDDLE EASTERN RESTAURANT,1,1907 WHITE PLAINS RD,1907,WHITE PLAINS RD,Bronx,
JIMBO'S HAMBURGERS,1,228 WILLIS AVE,228,WILLIS AVE,Bronx,
SKYLINE BAR & LOUNGE,1,1511 WILKINSON AVE,1511,WILKINSON AVE,Bronx,
SUBWAY,1,507 E 161ST ST,507,E 161ST ST,Bronx,
CURRY & KEBAB,0,3111 BAINBRIDGE AVE,3111,BAINBRIDGE AVE,Bronx,
THE MILES COFFEE BAR,1,4039 E TREMONT AVE,4039,E TREMONT AVE,Bronx,
KINGSBRIDGE SOCIAL CLUB,1,3625 KINGSBRIDGE AVE,3625,KINGSBRIDGE AVE,Bronx,
KEANE'S BAR & RESTAURANT,1,4342 KATONAH AVE,4342,KATONAH AVE,Bronx,
BOSTON MARKET,1,5520 BROADWAY,5520,BROADWAY,Bronx,
VAYA,1,2022 EASTCHESTER RD,2022,EASTCHESTER RD,Bronx,
EL NUEVO VALLE III,1,268 E 167TH ST,268,E 167TH ST,Bronx,
BOSTON MARKET,1,925 HUNTS POINT AVE,925,HUNTS POINT AVE,Bronx,
LILI MEXICAN RESTAURANT,1,415 E 138TH ST,415,E 138TH ST,Bronx,
EL CARBONCITO RESTAURANT,1,1524 WATSON AVE,1524,WATSON AVE,Bronx,
LA PARRANDA BAR RESTAURANT,1,2712 WHITE PLAINS RD,2712,WHITE PLAINS RD,Bronx,
GIGI'S PIZZA & PASTA,0,2020 EASTCHESTER RD,2020,EASTCHESTER RD,Bronx,
DELFINI,1,500 TIFFANY ST,500,TIFFANY ST,Bronx,
GERBASI RESTAURANT,1,2389 ARTHUR AVE,2389,ARTHUR AVE,Bronx,
HOLIDAY INN EXPRESS BRONX,1,500 EXTERIOR ST,500,EXTERIOR ST,Bronx,
SUBWAY,1,3044 3RD AVE,3044,3RD AVE,Bronx,
BAGEL CORNER,1,581 W 235TH ST,581,W 235TH ST,Bronx,
ROLEN BAGEL,1,3601 RIVERDALE AVE,3601,RIVERDALE AVE,Bronx,
THE HUNTING CLUB,1,2503 WILLIAMSBRIDGE RD,2503,WILLIAMSBRIDGE RD,Bronx,
AMINAS CAFE,0,890 MORRIS AVE,890,MORRIS AVE,Bronx,
SAN JOSE TULCINGO DELI,1,109 E 153RD ST,109,E 153RD ST,Bronx,
SMOKEY ISLAND GRILL,1,260 E 161ST ST,260,E 161ST ST,Bronx,
CARLOS AND GABBY'S,1,5685 RIVERDALE AVE,5685,RIVERDALE AVE,Bronx,
SOFRA,1,2011A WILLIAMSBRIDGE RD,2011A,WILLIAMSBRIDGE RD,Bronx,
SUBWAY,1,1957 WESTCHESTER AVE,1957,WESTCHESTER AVE,Bronx,
DARY'S RESTAURANT BAR,1,517-519 E 180TH ST,517-519,E 180TH ST,Bronx,
BRONX TAVERN,1,780 E 133RD ST,780,E 133RD ST,Bronx,
BOSTON MARKET,1,880 WHITE PLAINS RD,880,WHITE PLAINS RD,Bronx,
DUNKIN DONUTS,1,513 E 138TH ST,513,E 138TH ST,Bronx,
Wendy's,1,387 E 149TH ST,387,E 149TH ST,Bronx,
FRESHLY MADE,1,2535 3RD AVE,2535,3RD AVE,Bronx,
EL BISCOCHITO,1,967 E 167TH ST,967,E 167TH ST,Bronx,
MOFON LOUNGE,1,894 E TREMONT AVE,894,E TREMONT AVE,Bronx,
VORFI PIZZA AND BUREK,1,769 ASTOR AVE,769,ASTOR AVE,Bronx,
JUANITO RESTAURANT,0,494 E 138TH ST,494,E 138TH ST,Bronx,
TULCINGO CAFE,1,3041 BUHRE AVE,3041,BUHRE AVE,Bronx,
ALWAYS HEALTHY (HERBAL LIFE),0,705 MELROSE AVE,705,MELROSE AVE,Bronx,
EL MACO RESTAURANT,1,1481 JEROME AVE,1481,JEROME AVE,Bronx,
LECHONERA POLLO SABROSO DEL,1,920 E 174TH ST,920,E 174TH ST,Bronx,
PORTOFINO CAFE,1,2008 WILLIAMSBRIDGE RD,2008,WILLIAMSBRIDGE RD,Bronx,
3 BROS 99C PIZZA,1,5 W FORDHAM RD,5,W FORDHAM RD,Bronx,
COM TAM NINH KIEU,0,2641 JEROME AVE,2641,JEROME AVE,Bronx,
FAMOSA PIZZA,1,621 E 187TH ST,621,E 187TH ST,Bronx,
MOTTLEY KITCHEN,1,402 E 140TH ST,402,E 140TH ST,Bronx,
GUN HILL TAVERN,1,2515 3RD AVE,2515,3RD AVE,Bronx,
VISTAMAR RESTAURANT,1,565 CITY ISLAND AVE,565,CITY ISLAND AVE,Bronx,
CUMIN INDIAN CUISINE,1,3549 JOHNSON AVE,3549,JOHNSON AVE,Bronx,
NO 1 CHINESE RESTAURANT,0,3706 THIRD AVE,3706,THIRD AVE,Bronx,
SHERIDAN MARKET,1,191 E 161ST ST,191,E 161ST ST,Bronx,
TASTE AND SABOR,1,318 W 231ST ST,318,W 231ST ST,Bronx,
LINCOLN GYRO,1,231B E 149TH ST,231B,E 149TH ST,Bronx,
MARKETTA,0,2344 ARTHUR AVE,2344,ARTHUR AVE,Bronx,
MOFONGUITO.COM,1,678 ALLERTON AVE,678,ALLERTON AVE,Bronx,
MARINELL BAKERY,1,264 E 167TH ST,264,E 167TH ST,Bronx,
EL CARIDAD RESTAURANT,1,90 E BURNSIDE AVE,90,E BURNSIDE AVE,Bronx,
LA DUENA,1,1250 MORRISON AVE,1250,MORRISON AVE,Bronx,
CARIDAD SEAFOOD RESTAURANT,1,410 E TREMONT AVE,410,E TREMONT AVE,Bronx,
Burger King,1,3261 WESTCHESTER AVE,3261,WESTCHESTER AVE,Bronx,
THE BRONX BREWERY-TAP ROOM,0,856 E 136TH ST,856,E 136TH ST,Bronx,
BAGELS AND CREAM,1,1728 EASTCHESTER RD,1728,EASTCHESTER RD,Bronx,
ALLURE RESTURANT & BAR,1,938 E 233RD ST,938,E 233RD ST,Bronx,
CAPTAINS PIZZERIA AND RESTAURANT,1,1056 MORRIS PARK AVE,1056,MORRIS PARK AVE,Bronx,
KENNEDY FRIED CHICKEN & PIZZERIA,1,952 LONGWOOD AVE,952,LONGWOOD AVE,Bronx,
Galaxy Coffee Shop,1,3150 BAINBRIDGE AVE,3150,BAINBRIDGE AVE,Bronx,
COUNTRY BAY PIZZA,1,3233 AMPERE AVE,3233,AMPERE AVE,Bronx,
MAMA INES COFFEE SHOP & BAKERY,1,3127 HULL AVE,3127,HULL AVE,Bronx,
ARBY'S,1,2059 BARTOW AVE,2059,BARTOW AVE,Bronx,
BOCA RESTAURANT & STEAK HOUSE,1,2458 WEBSTER AVE,2458,WEBSTER AVE,Bronx,
PARQ,1,4001 E TREMONT AVE,4001,E TREMONT AVE,Bronx,
FU XING,1,1270 MORRISON AVE,1270,MORRISON AVE,Bronx,
CLIPPER COFFEE,1,274 CITY ISLAND AVE,274,CITY ISLAND AVE,Bronx,
LA SABROSURA 1 RESTAURANT,0,25A E 170TH ST,25A,E 170TH ST,Bronx,
FLAMING DELICIOUS JERK CUISINE,1,3563B BOSTON RD,3563B,BOSTON RD,Bronx,
KENNEDY CHICKEN BURGER & ICE,1,3496 JEROME AVE,3496,JEROME AVE,Bronx,
Pizza Supreme,1,5959 BROADWAY,5959,BROADWAY,Bronx,
ARBYS,1,1905 STORY AVE,1905,STORY AVE,Bronx,
EL CLUB VALLE RESTAURANT,0,352 E GUN HILL RD,352,E GUN HILL RD,Bronx,
